NORAD_CAT_ID,OBJECT_NAME,OBJECT_TYPE,EPOCH,MEAN_MOTION,ECCENTRICITY,INCLINATION,RA_OF_ASC_NODE,ARG_OF_PERICENTER,MEAN_ANOMALY,BSTAR,MEAN_MOTION_DOT,MEAN_MOTION_DDOT,TLE_LINE0,TLE_LINE1,TLE_LINE2,SEMIMAJOR_AXIS,PERIOD,APOGEE,PERIGEE,DECAYED
52583.0,STARLINK-3895,PAYLOAD,2022-11-30 16:47:27,15.08836353,0.0001923,53.22,83.6427,40.0836,320.0298,8.8595e-05,1.122e-05,0.0,0 STARLINK-3895,1 52583U 22051AZ  22334.69961988  .00001122  00000-0  88595-4 0  9998,2 52583  53.2200  83.6427 0001923  40.0836 320.0298 15.08836353 31250,6917.892,95.438,541.087,538.4259999999998,0.0
52583.0,STARLINK-3895,PAYLOAD,2022-12-01 13:27:27,15.088425,0.0002234,53.2211,79.778,35.6436,324.4705,1.4222e-05,-6.2e-07,0.0,0 STARLINK-3895,1 52583U 22051AZ  22335.56073862 -.00000062  00000-0  14222-4 0  9999,2 52583  53.2211  79.7780 0002234  35.6436 324.4705 15.08842500 31311,6917.873000000001,95.437,541.283,538.192,0.0
52583.0,STARLINK-3895,PAYLOAD,2022-12-02 00:35:09,15.08853805,0.000245,53.2218,77.697,38.5992,321.5175,-6.3068e-05,-1.292e-05,0.0,0 STARLINK-3895,1 52583U 22051AZ  22336.02441084 -.00001292  00000-0 -63068-4 0  9995,2 52583  53.2218  77.6970 0002450  38.5992 321.5175 15.08853805 31459,6917.8380000000025,95.437,541.398,538.008,0.0
52583.0,STARLINK-3895,PAYLOAD,2022-12-02 13:18:14,15.08842202,0.0002017,53.2212,75.3168,43.7069,316.4083,8.7995e-05,1.113e-05,0.0,0 STARLINK-3895,1 52583U 22051AZ  22336.55433338  .00001113  00000-0  87995-4 0  9991,2 52583  53.2212  75.3168 0002017  43.7069 316.4083 15.08842202 31538,6917.874,95.437,541.134,538.3430000000002,0.0
52583.0,STARLINK-3895,PAYLOAD,2022-12-03 13:09:00,15.08883484,0.0002084,53.2216,70.858,31.8222,328.2896,-0.0004831,-7.978e-05,0.0,0 STARLINK-3895,1 52583U 22051AZ  22337.54792267 -.00007978  00000-0 -48310-3 0  9994,2 52583  53.2216  70.8580 0002084  31.8222 328.2896 15.08883484 31689,6917.746999999999,95.435,541.054,538.1709999999998,0.0
52583.0,STARLINK-3895,PAYLOAD,2022-12-03 17:55:12,15.08825319,0.0002133,53.2211,69.9644,38.7601,321.3544,-8.593299999999999e-05,-1.655e-05,0.0,0 STARLINK-3895,1 52583U 22051AZ  22337.74666851 -.00001655  00000-0 -85933-4 0  9994,2 52583  53.2211  69.9644 0002133  38.7601 321.3544 15.08825319 31717,6917.925,95.438,541.266,538.315,0.0
52583.0,STARLINK-3895,PAYLOAD,2022-12-04 06:38:18,15.08818048,0.0001941,53.2206,67.5863,32.6406,327.4706,-0.00012084,-2.21e-05,0.0,0 STARLINK-3895,1 52583U 22051AZ  22338.27659831 -.00002210  00000-0 -12084-3 0  9997,2 52583  53.2206  67.5863 0001941  32.6406 327.4706 15.08818048 31796,6917.946999999999,95.439,541.155,538.47,0.0
52583.0,STARLINK-3895,PAYLOAD,2022-12-04 12:59:50,15.08817887,0.0002075,53.2205,66.3975,31.1384,328.9731,-0.0001082,-2.009e-05,0.0,0 STARLINK-3895,1 52583U 22051AZ  22338.54156184 -.00002009  00000-0 -10820-3 0  9992,2 52583  53.2205  66.3975 0002075  31.1384 328.9731 15.08817887 31765,6917.948,95.439,541.248,538.378,0.0
52583.0,STARLINK-3895,PAYLOAD,2022-12-04 22:32:09,15.08823105,0.000211,53.2208,64.6133,32.7063,327.406,-3.5273e-05,-8.49e-06,0.0,0 STARLINK-3895,1 52583U 22051AZ  22338.93900188 -.00000849  00000-0 -35273-4 0  9996,2 52583  53.2208  64.6133 0002110  32.7063 327.4060 15.08823105 31899,6917.932,95.439,541.257,538.337,0.0
52583.0,STARLINK-3895,PAYLOAD,2022-12-05 12:50:37,15.08840765,0.000215,53.2205,61.9373,31.8875,328.2247,5.6477e-05,6.11e-06,0.0,0 STARLINK-3895,1 52583U 22051AZ  22339.53515313  .00000611  00000-0  56477-4 0  9999,2 52583  53.2205  61.9373 0002150  31.8875 328.2247 15.08840765 31984,6917.878000000002,95.438,541.23,538.256,0.0
52583.0,STARLINK-3895,PAYLOAD,2022-12-06 09:30:38,15.08853566,0.000227,53.2196,58.07100000000001,32.53,327.5832,0.00052792,8.127e-05,0.0,0 STARLINK-3895,1 52583U 22051AZ  22340.39627383  .00008127  00000-0  52792-3 0  9991,2 52583  53.2196  58.0710 0002270  32.5300 327.5832 15.08853566 32042,6917.839,95.437,541.274,538.134,0.0
52583.0,STARLINK-3895,PAYLOAD,2022-12-06 12:41:24,15.08844307,0.0001801,53.2195,57.4766,39.2298,320.8825,0.00029293,4.378e-05,0.0,0 STARLINK-3895,1 52583U 22051AZ  22340.52875638  .00004378  00000-0  29293-3 0  9998,2 52583  53.2195  57.4766 0001801  39.2298 320.8825 15.08844307 32067,6917.8669999999975,95.437,540.9780000000002,538.486,0.0
52583.0,STARLINK-3895,PAYLOAD,2022-12-07 04:35:15,15.08847378,0.0002305,53.2205,54.504,37.4657,322.6496,7.091600000000001e-05,8.41e-06,0.0,0 STARLINK-3895,1 52583U 22051AZ  22341.19115309  .00000841  00000-0  70916-4 0  9994,2 52583  53.2205  54.5040 0002305  37.4657 322.6496 15.08847378 32235,6917.858,95.437,541.317,538.128,0.0
52583.0,STARLINK-3895,PAYLOAD,2022-12-07 14:07:34,15.08842277,0.0002211,53.2196,52.7189,35.85,324.264,0.00012448,1.694e-05,0.0,0 STARLINK-3895,1 52583U 22051AZ  22341.58859496  .00001694  00000-0  12448-3 0  9991,2 52583  53.2196  52.7189 0002211  35.8500 324.2640 15.08842277 32224,6917.873000000001,95.437,541.268,538.2090000000002,0.0
52583.0,STARLINK-3895,PAYLOAD,2022-12-08 06:01:25,15.0885866,0.0002261,53.2204,49.7467,33.6875,326.426,0.0006803,0.00010561,0.0,0 STARLINK-3895,1 52583U 22051AZ  22342.25098946  .00010561  00000-0  68030-3 0  9992,2 52583  53.2204  49.7467 0002261  33.6875 326.4260 15.08858660 32398,6917.823,95.436,541.252,538.124,0.0
52583.0,STARLINK-3895,PAYLOAD,2022-12-08 10:47:34,15.08852625,0.000186,53.2203,48.8546,345.7919,14.302,0.00046477,7.119e-05,0.0,0 STARLINK-3895,1 52583U 22051AZ  22342.44970630  .00007119  00000-0  46477-3 0  9998,2 52583  53.2203  48.8546 0001860 345.7919  14.3020 15.08852625 32353,6917.842,95.437,540.994,538.42,0.0
52583.0,STARLINK-3895,PAYLOAD,2022-12-08 12:22:57,15.08858925,0.0001856,53.2201,48.5577,26.2412,333.8674,0.00052846,8.137e-05,0.0,0 STARLINK-3895,1 52583U 22051AZ  22342.51594442  .00008137  00000-0  52846-3 0  9997,2 52583  53.2201  48.5577 0001856  26.2412 333.8674 15.08858925 32438,6917.823,95.436,540.971,538.404,0.0
52583.0,STARLINK-3895,PAYLOAD,2022-12-09 04:16:48,15.0887202,0.0002245,53.2199,45.5864,21.9027,338.206,0.00066838,0.00010375,0.0,0 STARLINK-3895,1 52583U 22051AZ  22343.17833487  .00010375  00000-0  66838-3 0  9998,2 52583  53.2199  45.5864 0002245  21.9027 338.2060 15.08872020 32460,6917.783,95.436,541.201,538.094,0.0
52583.0,STARLINK-3895,PAYLOAD,2022-12-09 13:49:07,15.08845924,0.0002258,53.2205,43.8012,1.8813,358.2187,5.3708e-06,-2.03e-06,0.0,0 STARLINK-3895,1 52583U 22051AZ  22343.57577699 -.00000203  00000-0  53708-5 0  9996,2 52583  53.2205  43.8012 0002258   1.8813 358.2187 15.08845924 32597,6917.861999999999,95.437,541.289,538.165,0.0
52583.0,STARLINK-3895,PAYLOAD,2022-12-09 15:24:31,15.08820647,0.0001844,53.2201,43.5037,11.4396,348.6638,-0.00073821,-0.00012011,0.0,0 STARLINK-3895,1 52583U 22051AZ  22343.64202630 -.00012011  00000-0 -73821-3 0  9991,2 52583  53.2201  43.5037 0001844  11.4396 348.6638 15.08820647 32601,6917.94,95.439,541.08,538.529,0.0
52583.0,STARLINK-3895,PAYLOAD,2022-12-10 04:07:36,15.08830725,0.0002454,53.2201,41.1266,23.2773,336.8329,0.00062807,9.719e-05,0.0,0 STARLINK-3895,1 52583U 22051AZ  22344.17195324  .00009719  00000-0  62807-3 0  9992,2 52583  53.2201  41.1266 0002454  23.2773 336.8329 15.08830725 32689,6917.909000000002,95.438,541.471,538.076,0.0
52583.0,STARLINK-3895,PAYLOAD,2022-12-10 10:29:10,15.0881869,0.0002628,53.2203,39.9375,30.3167,329.7977,6.2801e-05,7.11e-06,0.0,0 STARLINK-3895,1 52583U 22051AZ  22344.43692148  .00000711  00000-0  62801-4 0  9995,2 52583  53.2203  39.9375 0002628  30.3167 329.7977 15.08818690 32728,6917.946,95.439,541.629,537.992,0.0
52583.0,STARLINK-3895,PAYLOAD,2022-12-11 13:30:43,15.08862606,0.0002926,53.2196,34.8818,29.4143,330.7014,0.0011613,0.00018254,0.0,0 STARLINK-3895,1 52583U 22051AZ  22345.56300214  .00018254  00000-0  11613-2 0  9994,2 52583  53.2196  34.8818 0002926  29.4143 330.7014 15.08862606 32897,6917.811,95.436,541.7,537.6519999999998,0.0
52583.0,STARLINK-3895,PAYLOAD,2022-12-12 03:49:10,15.08860832,0.000223,53.2206,32.203,51.4406,308.6786,0.00049177,7.552e-05,0.0,0 STARLINK-3895,1 52583U 22051AZ  22346.15915452  .00007552  00000-0  49177-3 0  9992,2 52583  53.2206  32.2030 0002230  51.4406 308.6786 15.08860832 32981,6917.816999999999,95.436,541.224,538.139,0.0
52583.0,STARLINK-3895,PAYLOAD,2022-12-12 08:35:20,15.08863502,0.0002241,53.2202,31.3109,50.5163,309.6027,0.00046355,7.102e-05,0.0,0 STARLINK-3895,1 52583U 22051AZ  22346.35787126  .00007102  00000-0  46355-3 0  9995,2 52583  53.2202  31.3109 0002241  50.5163 309.6027 15.08863502 32948,6917.809,95.436,541.224,538.123,0.0
52583.0,STARLINK-3895,PAYLOAD,2022-12-13 03:39:57,15.08857585,0.0002299,53.2189,27.7424,48.5817,311.5372,6.3442e-05,7.22e-06,0.0,0 STARLINK-3895,1 52583U 22051AZ  22347.15274365  .00000722  00000-0  63442-4 0  9998,2 52583  53.2189  27.7424 0002299  48.5817 311.5372 15.08857585 33138,6917.8269999999975,95.436,541.2819999999998,538.101,0.0
52583.0,STARLINK-3895,PAYLOAD,2022-12-13 10:01:29,15.08847105,0.0002541,53.22,26.554,38.1186,321.9985,-9.5809e-05,-1.813e-05,0.0,0 STARLINK-3895,1 52583U 22051AZ  22347.41770507 -.00001813  00000-0 -95809-4 0  9992,2 52583  53.2200  26.5540 0002541  38.1186 321.9985 15.08847105 33178,6917.859,95.437,541.481,537.966,0.0
52583.0,STARLINK-3895,PAYLOAD,2022-12-13 13:12:16,15.08846978,0.0002305,53.2189,25.9592,41.0686,319.0479,-0.00015258,-2.716e-05,0.0,0 STARLINK-3895,1 52583U 22051AZ  22347.55018539 -.00002716  00000-0 -15258-3 0  9999,2 52583  53.2189  25.9592 0002305  41.0686 319.0479 15.08846978 33128,6917.859,95.437,541.319,538.129,0.0
52583.0,STARLINK-3895,PAYLOAD,2022-12-14 11:27:40,15.08835089,0.0002637,53.2178,21.7935,38.8021,321.316,-0.00020668,-3.576e-05,0.0,0 STARLINK-3895,1 52583U 22051AZ  22348.47754914 -.00003576  00000-0 -20668-3 0  9991,2 52583  53.2178  21.7935 0002637  38.8021 321.3160 15.08835089 33333,6917.895,95.438,541.585,537.936,0.0
